{
  "links" : {
    "next" : "https://api.nasa.gov/neo/rest/v1/feed?start_date=1996-01-16&end_date=1996-01-16&detailed=true&api_key=t0TVs3DtDT2H8Oy2Zy8m2eVrNsAVKAexjcZXUckd",
    "prev" : "https://api.nasa.gov/neo/rest/v1/feed?start_date=1996-01-14&end_date=1996-01-14&detailed=true&api_key=t0TVs3DtDT2H8Oy2Zy8m2eVrNsAVKAexjcZXUckd",
    "self" : "https://api.nasa.gov/neo/rest/v1/feed?start_date=1996-01-15&end_date=1996-01-15&detailed=true&api_key=t0TVs3DtDT2H8Oy2Zy8m2eVrNsAVKAexjcZXUckd"
  },
  "element_count" : 6,
  "near_earth_objects" : {
    "1996-01-15" : [ {
      "links" : {
        "self" : "https://api.nasa.gov/neo/rest/v1/neo/2476904?api_key=t0TVs3DtDT2H8Oy2Zy8m2eVrNsAVKAexjcZXUckd"
      },
      "neo_reference_id" : "2476904",
      "name" : "476904 (2008 WK32)",
      "nasa_jpl_url" : "http://ssd.jpl.nasa.gov/sbdb.cgi?sstr=2476904",
      "absolute_magnitude_h" : 19.2,
      "estimated_diameter" : {
        "kilometers" : {
          "estimated_diameter_min" : 0.3841978911,
          "estimated_diameter_max" : 0.8590926012
        },
        "meters" : {
          "estimated_diameter_min" : 384.1978910643,
          "estimated_diameter_max" : 859.0926012318
        },
        "miles" : {
          "estimated_diameter_min" : 0.2387294278,
          "estimated_diameter_max" : 0.5338152287
        },
        "feet" : {
          "estimated_diameter_min" : 1260.4918089193,
          "estimated_diameter_max" : 2818.5453698252
        }
      },
      "is_potentially_hazardous_asteroid" : false,
      "close_approach_data" : [ {
        "close_approach_date" : "1996-01-15",
        "epoch_date_close_approach" : 821692800000,
        "relative_velocity" : {
          "kilometers_per_second" : "21.1587628409",
          "kilometers_per_hour" : "76171.5462270917",
          "miles_per_hour" : "47330.0365987171"
        },
        "miss_distance" : {
          "astronomical" : "0.4602387328",
          "lunar" : "179.0328674316",
          "kilometers" : "68850736",
          "miles" : "42781864"
        },
        "orbiting_body" : "Earth"
      } ],
      "orbital_data" : {
        "orbit_id" : "49",
        "orbit_determination_date" : "2017-04-06 09:19:02",
        "orbit_uncertainty" : "0",
        "minimum_orbit_intersection" : ".0683833",
        "jupiter_tisserand_invariant" : "4.651",
        "epoch_osculation" : "2458000.5",
        "eccentricity" : ".3790170742696508",
        "semi_major_axis" : "1.396228061943835",
        "inclination" : "15.45231677256388",
        "ascending_node_longitude" : "58.80444933705014",
        "orbital_period" : "602.6053324743364",
        "perihelion_distance" : ".8670337868926979",
        "perihelion_argument" : "139.8599008943959",
        "aphelion_distance" : "1.925422336994972",
        "perihelion_time" : "2457976.839119924921",
        "mean_anomaly" : "14.13515010239524",
        "mean_motion" : ".597405931543647",
        "equinox" : "J2000"
      }
    }, {
      "links" : {
        "self" : "https://api.nasa.gov/neo/rest/v1/neo/3769883?api_key=t0TVs3DtDT2H8Oy2Zy8m2eVrNsAVKAexjcZXUckd"
      },
      "neo_reference_id" : "3769883",
      "name" : "(2017 DW35)",
      "nasa_jpl_url" : "http://ssd.jpl.nasa.gov/sbdb.cgi?sstr=3769883",
      "absolute_magnitude_h" : 22.2,
      "estimated_diameter" : {
        "kilometers" : {
          "estimated_diameter_min" : 0.096506147,
          "estimated_diameter_max" : 0.2157943048
        },
        "meters" : {
          "estimated_diameter_min" : 96.5061469579,
          "estimated_diameter_max" : 215.7943048444
        },
        "miles" : {
          "estimated_diameter_min" : 0.059966121,
          "estimated_diameter_max" : 0.134088323
        },
        "feet" : {
          "estimated_diameter_min" : 316.6212271853,
          "estimated_diameter_max" : 707.9865871058
        }
      },
      "is_potentially_hazardous_asteroid" : false,
      "close_approach_data" : [ {
        "close_approach_date" : "1996-01-15",
        "epoch_date_close_approach" : 821692800000,
        "relative_velocity" : {
          "kilometers_per_second" : "19.4132648241",
          "kilometers_per_hour" : "69887.7533667287",
          "miles_per_hour" : "43425.5320850098"
        },
        "miss_distance" : {
          "astronomical" : "0.4605493242",
          "lunar" : "179.1536865234",
          "kilometers" : "68897200",
          "miles" : "42810736"
        },
        "orbiting_body" : "Earth"
      } ],
      "orbital_data" : {
        "orbit_id" : "8",
        "orbit_determination_date" : "2017-04-06 08:20:00",
        "orbit_uncertainty" : "7",
        "minimum_orbit_intersection" : ".16521",
        "jupiter_tisserand_invariant" : "6.754",
        "epoch_osculation" : "2458000.5",
        "eccentricity" : ".5553834027313849",
        "semi_major_axis" : ".8410845845342316",
        "inclination" : "31.90611178790658",
        "ascending_node_longitude" : "338.1601227638802",
        "orbital_period" : "281.7461153230545",
        "perihelion_distance" : ".3739601659906969",
        "perihelion_argument" : "341.0891992217253",
        "aphelion_distance" : "1.308209003077766",
        "perihelion_time" : "2457912.829385238794",
        "mean_anomaly" : "112.0207860819852",
        "mean_motion" : "1.277746099843181",
        "equinox" : "J2000"
      }
    }, {
      "links" : {
        "self" : "https://api.nasa.gov/neo/rest/v1/neo/2496327?api_key=t0TVs3DtDT2H8Oy2Zy8m2eVrNsAVKAexjcZXUckd"
      },
      "neo_reference_id" : "2496327",
      "name" : "496327 (2013 MY6)",
      "nasa_jpl_url" : "http://ssd.jpl.nasa.gov/sbdb.cgi?sstr=2496327",
      "absolute_magnitude_h" : 17.9,
      "estimated_diameter" : {
        "kilometers" : {
          "estimated_diameter_min" : 0.6991252322,
          "estimated_diameter_max" : 1.5632915441
        },
        "meters" : {
          "estimated_diameter_min" : 699.1252322458,
          "estimated_diameter_max" : 1563.2915440869
        },
        "miles" : {
          "estimated_diameter_min" : 0.4344161447,
          "estimated_diameter_max" : 0.97138403
        },
        "feet" : {
          "estimated_diameter_min" : 2293.7180269613,
          "estimated_diameter_max" : 5128.9094295021
        }
      },
      "is_potentially_hazardous_asteroid" : false,
      "close_approach_data" : [ {
        "close_approach_date" : "1996-01-15",
        "epoch_date_close_approach" : 821692800000,
        "relative_velocity" : {
          "kilometers_per_second" : "33.9284382992",
          "kilometers_per_hour" : "122142.3778769792",
          "miles_per_hour" : "75894.523631393"
        },
        "miss_distance" : {
          "astronomical" : "0.2612221981",
          "lunar" : "101.6154327393",
          "kilometers" : "39078284",
          "miles" : "24282120"
        },
        "orbiting_body" : "Earth"
      } ],
      "orbital_data" : {
        "orbit_id" : "38",
        "orbit_determination_date" : "2017-07-11 15:55:38",
        "orbit_uncertainty" : "1",
        "minimum_orbit_intersection" : ".217108",
        "jupiter_tisserand_invariant" : "3.970",
        "epoch_osculation" : "2458000.5",
        "eccentricity" : ".502936667954702",
        "semi_major_axis" : "1.532200384377786",
        "inclination" : "52.23787326605067",
        "ascending_node_longitude" : "124.9900565678005",
        "orbital_period" : "692.7424118300337",
        "perihelion_distance" : ".7616006284199084",
        "perihelion_argument" : "9.783093931778305",
        "aphelion_distance" : "2.302800140335663",
        "perihelion_time" : "2457725.082538193149",
        "mean_anomaly" : "143.1272065305468",
        "mean_motion" : ".5196736822406753",
        "equinox" : "J2000"
      }
    } ]
  }
}